[{"OBJECT_NAME":"OBJECT H","OBJECT_ID":"2025-055H","EPOCH":"2026-03-09T23:29:50.051328","MEAN_MOTION":15.30330066,"ECCENTRICITY":0.00075967,"INCLINATION":97.636,"RA_OF_ASC_NODE":211.9572,"ARG_OF_PERICENTER":140.4354,"MEAN_ANOMALY":219.7441,"EPHEMERIS_TYPE":0,"CLASSIFICATION_TYPE":"U","NORAD_CAT_ID":63298,"ELEMENT_SET_NO":999,"REV_AT_EPOCH":5423,"BSTAR":0.0015582864,"MEAN_MOTION_DOT":0.00045901,"MEAN_MOTION_DDOT":0},{"OBJECT_NAME":"STARLINK-33976","OBJECT_ID":"2025-093Y","EPOCH":"2026-03-09T10:29:17.983680","MEAN_MOTION":15.27624713,"ECCENTRICITY":0.00041869,"INCLINATION":43.0078,"RA_OF_ASC_NODE":79.2845,"ARG_OF_PERICENTER":284.0658,"MEAN_ANOMALY":75.9728,"EPHEMERIS_TYPE":0,"CLASSIFICATION_TYPE":"U","NORAD_CAT_ID":63858,"ELEMENT_SET_NO":999,"REV_AT_EPOCH":4777,"BSTAR":0.0012395216,"MEAN_MOTION_DOT":0.00034057,"MEAN_MOTION_DDOT":0}]
